IRIDIUM 126             
1 42809U 17039G   24359.69845552  .00000133  00000+0  40338-4 0  9998
2 42809  86.3980 219.0535 0001904  80.6718 279.4693 14.34216840392623
IRIDIUM 124             
1 42810U 17039H   24359.51979508  .00000978  00000+0  28473-3 0  9992
2 42810  86.4515 155.9714 0002062 106.0893 254.0535 14.43283911397273
IRIDIUM 128             
1 42811U 17039J   24359.75896402  .00000712  00000+0  24708-3 0  9993
2 42811  86.3968 250.5361 0001758  88.5971 271.5427 14.34221725392664
IRIDIUM 121             
1 42812U 17039K   24359.85702371  .00000093  00000+0  26085-4 0  9999
2 42812  86.3980 219.0114 0001927  90.2430 269.8986 14.34218302392525
IRIDIUM 133             
1 42955U 17061A   24359.79067802  .00000331  00000+0  11109-3 0  9993
2 42955  86.3969 250.6269 0002012  84.6099 275.5326 14.34218611377467
IRIDIUM 100             
1 42956U 17061B   24359.78433499  .00000225  00000+0  73414-4 0  9992
2 42956  86.3967 250.5607 0001771  85.5721 274.5678 14.34218952377461
IRIDIUM 122             
1 42957U 17061C   24359.96192592  .00000395  00000+0  13412-3 0  9998
2 42957  86.3967 250.4857 0001830  76.1826 283.9573 14.34220371377495
IRIDIUM 129             
1 42958U 17061D   24359.77799018  .00000639  00000+0  22107-3 0  9996
2 42958  86.3969 250.6236 0002392  77.4432 282.7031 14.34221938377487
